{
    "CCSDS_OMM_VERS": "3.0",
    "COMMENT": "GENERATED VIA SPACE-TRACK.ORG API",
    "CREATION_DATE": "2025-05-22T17:14:14",
    "ORIGINATOR": "18 SPCS",
    "OBJECT_NAME": "COSMOS 2534 (GLONASS)",
    "OBJECT_ID": "2019-030A",
    "CENTER_NAME": "EARTH",
    "REF_FRAME": "TEME",
    "TIME_SYSTEM": "UTC",
    "MEAN_ELEMENT_THEORY": "SGP4",
    "EPOCH": "2025-05-22T05:25:39.220896",
    "MEAN_MOTION": "2.13102220",
    "ECCENTRICITY": "0.00125650",
    "INCLINATION": "64.3649",
    "RA_OF_ASC_NODE": "205.7844",
    "ARG_OF_PERICENTER": "277.9259",
    "MEAN_ANOMALY": "168.6223",
    "EPHEMERIS_TYPE": "0",
    "CLASSIFICATION_TYPE": "U",
    "NORAD_CAT_ID": "44299",
    "ELEMENT_SET_NO": "999",
    "REV_AT_EPOCH": "4659",
    "BSTAR": "0.00000000000000",
    "MEAN_MOTION_DOT": "0.00000053",
    "MEAN_MOTION_DDOT": "0.0000000000000",
    "SEMIMAJOR_AXIS": "25508.007",
    "PERIOD": "675.732",
    "APOAPSIS": "19161.923",
    "PERIAPSIS": "19097.821",
    "OBJECT_TYPE": "PAYLOAD",
    "RCS_SIZE": "LARGE",
    "COUNTRY_CODE": "CIS",
    "LAUNCH_DATE": "2019-05-27",
    "SITE": "PKMTR",
    "DECAY_DATE": null,
    "FILE": "4736220",
    "GP_ID": "288145700",
    "TLE_LINE0": "0 COSMOS 2534 (GLONASS)",
    "TLE_LINE1": "1 44299U 19030A   25142.22614839  .00000053  00000-0  00000-0 0  9998",
    "TLE_LINE2": "2 44299  64.3649 205.7844 0012565 277.9259 168.6223  2.13102220 46597"
}